#dP2024  6 27  0  0  0.00000000      96 __u+U IGS20 EXT  IAC
## 2320 345600.00000000   900.00000000 60488 0.0000000000000
+   54   G02G03G04G05G06G07G08G09G10G11G12G13G14G15G16G17G18
+        G19G20G21G22G23G24G25G26G27G28G29G30G31G32R01R02R03
+        R04R05R07R08R09R11R12R13R14R15R16R17R18R19R20R21R22
+        R24R25R26  0  0  0  0  0  0  0  0  0  0  0  0  0  0
+          0  0  0  0  0  0  0  0  0  0  0  0  0  0  0  0  0
++         7  8  7  7  7  7  8  8 10  8  7  7  7  8  7  7  9
++         7  7  7  9  8  9  7  7  8  5  8  7  7  7  9  9  9
++         7  8  9  9  8  9  8  8  7  8  8  6  8  8 10  8  8
++         7  9  7  0  0  0  0  0  0  0  0  0  0  0  0  0  0
++         0  0  0  0  0  0  0  0  0  0  0  0  0  0  0  0  0
%c M  cc GPS ccc cccc cccc cccc cccc ccccc ccccc ccccc ccccc
%c cc cc ccc ccc cccc cccc cccc cccc ccccc ccccc ccccc ccccc
%f  0.0000000  0.000000000  0.00000000000  0.000000000000000
%f  0.0000000  0.000000000  0.00000000000  0.000000000000000
%i    0    0    0    0      0      0      0      0         0
%i    0    0    0    0      0      0      0      0         0
/* IAC                                ULTRA-RAPID PREDICTION
/* S/V CLOCKS ARE ALIGNED TO GNSS TIME                      
/* G:C1WC2W R:C1PC2P E:C1XC5X C:C2IC6I J:C1CC2S             
/* PCV:IGS20_2317 OL/AL:FES2004  NONE     YN ORB:CoN CLK:CoN
*  2024 06 27 20  0  0.00000000
PG02 -12029.134516  20829.118764 -10446.664285   -409.701897
PG03    -42.571795  15566.055496 -21700.361510    433.298412
PG04  -1618.271413  25735.057150  -6045.517163    392.220700
PG05  16362.893438  -8064.156126  19151.650824   -177.817434
PG06  20005.846276   -679.801293 -17452.532629    194.278934
PG07   6075.975658  14856.365046  21628.746919    -82.229777
PG08  -7802.293625  19783.469620  15528.017439    249.660602
PG09   7835.020452  24746.791566   5407.274416    251.292048
PG10 -24441.551998 -10812.124759   1062.757397    -52.541822
PG11  23270.557337 -11184.662512  -6080.446650   -694.223530
PG12   3770.587927 -15086.474864 -21815.929099   -517.677911
PG13  13256.622696 -12066.643289  19305.547684    660.853219
PG14  22687.515903  13357.611072   4346.826049    435.629105
PG15   5206.234432 -20935.621555  14866.186180    174.878963
PG16 -19773.394359   3387.420747  17292.365204   -252.346125
PG17  12747.819788  15602.812979 -16804.235924    687.777222
PG18  -5966.560197 -13985.262216  21769.702299   -630.212934
PG19  14842.976364   6595.796430 -21260.139818    502.498362
PG20  23266.995613  -3804.598528  12141.996269    373.367861
PG21 -15611.427346  19911.577869  -5615.810289    112.640633
PG22  24198.270278   9810.356714  -3490.944404    -32.730258
PG23 -18139.219721 -15441.613006  11982.286346    260.565972
PG24  12472.900668 -21384.607437  -9462.862470   -480.333310
PG25  -7991.248526 -17495.197266 -18761.917202    497.896408
PG26 -25793.798422  -3473.881676   6043.857755    129.777572
PG27 -13343.035790   8960.399254  20777.058713    -29.602687
PG28 -18868.865454  -1305.391523 -18656.504065   -307.526149
PG29  -3428.990072 -26122.092829   2729.877336   -592.257867
PG30  15865.429937   6767.953538  20408.212399   -367.219650
PG31 -23337.958720   7838.899070 -10677.465828   -227.146482
PG32 -14485.338017 -13142.814257 -17846.972333   -614.712312
PR01  -9317.558702   5709.324158 -23048.290496     89.688136
PR02   1660.855676  19223.194565 -16603.883325    -23.462812
PR03  12152.328512  22385.032504   -579.123027    102.841874
PR04  15360.426026  13451.357707  15311.951169    243.025458
PR05  10591.623181  -2772.569205  23048.830668    133.729577
PR07 -12404.558671 -22318.145545    -30.163123     85.484911
PR08 -15514.675821 -13168.918734 -15340.830868     -5.389475
PR09   7989.955736 -10882.796738 -21635.768804    194.589364
PR11 -23267.088176  -4530.492155  -9381.267002     20.029156
PR12 -22994.442356   4619.742847  10070.452906     41.808927
PR13 -10809.640477  10033.577280  20804.370209    -48.744331
PR14  10999.344088  10084.288071  20712.249592     26.618514
PR15  23943.356342   4029.483163   7862.132362     78.412827
PR16  23114.686101  -4524.213921  -9826.995663     26.857822
PR17    642.849827  16285.758104 -19636.378016     99.654928
PR18  11066.801381   1828.465504 -22904.316540    149.138693
PR19  16255.550621 -11613.705175 -15860.745361   -281.851879
PR20  12308.938650 -21926.439458   4401.334489   -115.214921
PR21   -237.304436 -16432.679078  19490.539611   -112.865360
PR22 -11950.627454  -1244.276610  22522.077182     97.011304
PR24 -10961.729746  22520.330830  -4878.925322    -61.566907
PR25   -489.887444 -16191.778616  19697.152041    -90.138128
PR26 -15642.446590 -14097.985259 -14356.732254     -5.362094
*  2024 06 27 20 15  0.00000000
PG02 -12997.382320  21433.365737  -7830.667922   -409.695435
PG03  -2359.096985  14719.148068 -22151.244745    433.313877
PG04  -1967.389307  24923.019807  -8747.417736    392.227877
PG05  18357.893340  -7302.757040  17608.349397   -177.818679
PG06  18433.300489    703.401617 -19090.904333    194.259313
PG07   4222.604136  16288.413801  20972.966043    -82.221517
PG08  -8389.588225  17945.370935  17372.531449    249.676274
PG09   7668.380385  25256.490656   2601.013130    251.305349
PG10 -24142.740085 -10871.335489   3927.619558    -52.549804
PG11  22726.556582 -10487.395899  -8778.142478   -694.230324
PG12   6003.294060 -14089.575083 -21979.652383   -517.680818
PG13  13423.075697  -9748.412932  20473.750039    660.855531
PG14  21987.335851  13370.201272   7058.896991    435.637238
PG15   6035.380634 -19203.896358  16729.689229    174.882737
PG16 -21438.853628   2432.221730  15442.960641   -252.336481
PG17  12771.980633  17495.884194 -14841.641777    687.771346
PG18  -4015.331100 -15474.842299  21183.195775   -630.217022
PG19  14935.153693   8929.461494 -20351.379707    502.503222
PG20  24449.683398  -3341.382942   9680.257526    373.367481
PG21 -16230.138915  20057.930028  -2753.001942    112.638360
PG22  24333.679401  10184.073913   -630.193004    -32.734538
PG23 -16681.011267 -15101.570880  14295.943681    260.574130
PG24  13338.952298 -21788.562194  -6852.927616   -480.335268
PG25  -5924.771790 -16886.315358 -20042.101988    497.896841
PG26 -26240.786848  -3916.973023   3338.175226    129.771688
PG27 -13847.553490   6532.169440  21373.574222    -29.603713
PG28 -17291.896830  -2855.208672 -19966.628742   -307.540957
PG29  -3208.858719 -26296.690312   -148.807796   -592.256255
PG30  14099.592099   8317.829134  21100.770664   -367.213974
PG31 -22430.307921   6865.952455 -13041.307211   -227.146282
PG32 -14685.700924 -15109.379696 -16076.993795   -614.710949
PR01 -10851.847160   3329.189291 -22841.412386     89.689140
PR02    644.571943  17280.791188 -18679.680250    -23.462978
PR03  12146.105764  22066.885316  -3787.864599    102.842308
PR04  16358.832210  14868.855582  12746.416686    243.026933
PR05  12033.122462   -360.708032  22496.777792    133.730016
PR07 -12450.333242 -22070.475451   3178.822514     85.485656
PR08 -16522.668632 -14600.392239 -12793.711685     -5.389800
PR09  10580.257749 -11052.337005 -20411.891930    194.591212
PR11 -21928.323241  -4443.734646 -12216.516297     20.028187
PR12 -24045.949381   4768.290774   7098.856600     41.809300
PR13 -13278.098726  10182.804856  19245.024744    -48.744487
PR14   8376.894393  10123.397404  21885.487222     26.618256
PR15  22794.397190   3937.226529  10787.669725     78.412447
PR16  24139.650052  -4697.488761  -6832.714160     26.858057
PR17   -387.990755  18352.498552 -17731.697911     99.657960
PR18   9620.494760   4286.388578 -23223.363108    149.140391
PR19  15022.985048  -9910.830115 -18078.038730   -281.853126
PR20  12302.653015 -22336.111712   1181.172391   -115.215578
PR21    798.299903 -18478.870763  17544.127247   -112.868241
PR22 -10467.925889  -3623.612767  22999.022490     97.006488
PR24 -11027.870815  22950.227503  -1698.422947    -61.568289
PR25    652.199022 -18209.332401  17841.303356    -90.165814
PR26 -16594.029294 -15406.900569 -11699.588794     -5.361337
EOF
